CCSDS_OMM_VERS = 2.0
CREATION_DATE  = 
ORIGINATOR     = 

OBJECT_NAME    = COSMOS 1933
OBJECT_ID      = 1988-020A
CENTER_NAME    = EARTH
REF_FRAME      = TEME
TIME_SYSTEM    = UTC
MEAN_ELEMENT_THEORY = SGP/SGP4

EPOCH          = 2026-02-03T02:43:01.244640
MEAN_MOTION    = 15.17675467
ECCENTRICITY   = .0003638
INCLINATION    = 82.5131
RA_OF_ASC_NODE = 285.1185
ARG_OF_PERICENTER = 346.1973
MEAN_ANOMALY   = 13.9160

EPHEMERIS_TYPE = 0
CLASSIFICATION_TYPE = U
NORAD_CAT_ID   = 18958
ELEMENT_SET_NO = 999
REV_AT_EPOCH   = 4498
BSTAR          = .21879E-3
MEAN_MOTION_DOT = .4436E-4
MEAN_MOTION_DDOT = 0

CCSDS_OMM_VERS = 2.0
CREATION_DATE  = 
ORIGINATOR     = 

OBJECT_NAME    = SL-3 R/B
OBJECT_ID      = 1988-032B
CENTER_NAME    = EARTH
REF_FRAME      = TEME
TIME_SYSTEM    = UTC
MEAN_ELEMENT_THEORY = SGP/SGP4

EPOCH          = 2026-02-03T02:21:04.995072
MEAN_MOTION    = 15.19442791
ECCENTRICITY   = .0026206
INCLINATION    = 97.5139
RA_OF_ASC_NODE = 17.4974
ARG_OF_PERICENTER = 359.0536
MEAN_ANOMALY   = 1.0645

EPHEMERIS_TYPE = 0
CLASSIFICATION_TYPE = U
NORAD_CAT_ID   = 19046
ELEMENT_SET_NO = 999
REV_AT_EPOCH   = 4685
BSTAR          = .33333E-3
MEAN_MOTION_DOT = .7059E-4
MEAN_MOTION_DDOT = 0

CCSDS_OMM_VERS = 2.0
CREATION_DATE  = 
ORIGINATOR     = 

OBJECT_NAME    = SL-16 R/B
OBJECT_ID      = 1988-039B
CENTER_NAME    = EARTH
REF_FRAME      = TEME
TIME_SYSTEM    = UTC
MEAN_ELEMENT_THEORY = SGP/SGP4

EPOCH          = 2026-02-03T00:44:18.955680
MEAN_MOTION    = 14.19611068
ECCENTRICITY   = .0020671
INCLINATION    = 71.0151
RA_OF_ASC_NODE = 141.8356
ARG_OF_PERICENTER = 27.7117
MEAN_ANOMALY   = 332.5105

EPHEMERIS_TYPE = 0
CLASSIFICATION_TYPE = U
NORAD_CAT_ID   = 19120
ELEMENT_SET_NO = 999
REV_AT_EPOCH   = 95346
BSTAR          = .67502E-4
MEAN_MOTION_DOT = .95E-6
MEAN_MOTION_DDOT = 0

CCSDS_OMM_VERS = 2.0
CREATION_DATE  = 
ORIGINATOR     = 

OBJECT_NAME    = COSMOS 1953
OBJECT_ID      = 1988-050A
CENTER_NAME    = EARTH
REF_FRAME      = TEME
TIME_SYSTEM    = UTC
MEAN_ELEMENT_THEORY = SGP/SGP4

EPOCH          = 2026-02-02T12:40:43.651200
MEAN_MOTION    = 15.27783597
ECCENTRICITY   = .00103663
INCLINATION    = 82.5078
RA_OF_ASC_NODE = 193.5842
ARG_OF_PERICENTER = 246.3598
MEAN_ANOMALY   = 113.6553

EPHEMERIS_TYPE = 0
CLASSIFICATION_TYPE = U
NORAD_CAT_ID   = 19210
ELEMENT_SET_NO = 999
REV_AT_EPOCH   = 3241
BSTAR          = .38657339E-3
MEAN_MOTION_DOT = .10538E-3
MEAN_MOTION_DDOT = 0

CCSDS_OMM_VERS = 2.0
CREATION_DATE  = 
ORIGINATOR     = 

OBJECT_NAME    = SL-8 R/B
OBJECT_ID      = 1988-053B
CENTER_NAME    = EARTH
REF_FRAME      = TEME
TIME_SYSTEM    = UTC
MEAN_ELEMENT_THEORY = SGP/SGP4

EPOCH          = 2026-02-02T21:51:04.335840
MEAN_MOTION    = 14.38893890
ECCENTRICITY   = .0020115
INCLINATION    = 74.0474
RA_OF_ASC_NODE = 176.5663
ARG_OF_PERICENTER = 2.6670
MEAN_ANOMALY   = 144.6394

EPHEMERIS_TYPE = 0
CLASSIFICATION_TYPE = U
NORAD_CAT_ID   = 19257
ELEMENT_SET_NO = 999
REV_AT_EPOCH   = 97159
BSTAR          = .86887E-4
MEAN_MOTION_DOT = .242E-5
MEAN_MOTION_DDOT = 0

CCSDS_OMM_VERS = 2.0
CREATION_DATE  = 
ORIGINATOR     = 

OBJECT_NAME    = COSMOS 1975
OBJECT_ID      = 1988-093A
CENTER_NAME    = EARTH
REF_FRAME      = TEME
TIME_SYSTEM    = UTC
MEAN_ELEMENT_THEORY = SGP/SGP4

EPOCH          = 2026-02-02T10:07:10.818336
MEAN_MOTION    = 15.27425140
ECCENTRICITY   = .0010407
INCLINATION    = 82.5225
RA_OF_ASC_NODE = 153.0594
ARG_OF_PERICENTER = 297.3964
MEAN_ANOMALY   = 62.6216

EPHEMERIS_TYPE = 0
CLASSIFICATION_TYPE = U
NORAD_CAT_ID   = 19573
ELEMENT_SET_NO = 999
REV_AT_EPOCH   = 1402
BSTAR          = .36179599E-3
MEAN_MOTION_DOT = .9757E-4
MEAN_MOTION_DDOT = 0

CCSDS_OMM_VERS = 2.0
CREATION_DATE  = 
ORIGINATOR     = 

OBJECT_NAME    = SL-14 R/B
OBJECT_ID      = 1988-093B
CENTER_NAME    = EARTH
REF_FRAME      = TEME
TIME_SYSTEM    = UTC
MEAN_ELEMENT_THEORY = SGP/SGP4

EPOCH          = 2026-02-03T04:16:26.294304
MEAN_MOTION    = 14.85617424
ECCENTRICITY   = .0021522
INCLINATION    = 82.5284
RA_OF_ASC_NODE = 74.4508
ARG_OF_PERICENTER = 148.7221
MEAN_ANOMALY   = 275.2571

EPHEMERIS_TYPE = 0
CLASSIFICATION_TYPE = U
NORAD_CAT_ID   = 19574
ELEMENT_SET_NO = 999
REV_AT_EPOCH   = 99591
BSTAR          = .49734E-4
MEAN_MOTION_DOT = .457E-5
MEAN_MOTION_DDOT = 0

CCSDS_OMM_VERS = 2.0
CREATION_DATE  = 
ORIGINATOR     = 

OBJECT_NAME    = SL-16 R/B
OBJECT_ID      = 1988-102B
CENTER_NAME    = EARTH
REF_FRAME      = TEME
TIME_SYSTEM    = UTC
MEAN_ELEMENT_THEORY = SGP/SGP4

EPOCH          = 2026-02-02T12:24:08.615232
MEAN_MOTION    = 14.16146001
ECCENTRICITY   = .00121742
INCLINATION    = 70.9971
RA_OF_ASC_NODE = 225.5007
ARG_OF_PERICENTER = 59.9348
MEAN_ANOMALY   = 300.2981

EPHEMERIS_TYPE = 0
CLASSIFICATION_TYPE = U
NORAD_CAT_ID   = 19650
ELEMENT_SET_NO = 999
REV_AT_EPOCH   = 92191
BSTAR          = -.63427439E-4
MEAN_MOTION_DOT = -.173E-5
MEAN_MOTION_DDOT = 0

CCSDS_OMM_VERS = 2.0
CREATION_DATE  = 
ORIGINATOR     = 

OBJECT_NAME    = INTERCOSMOS 24
OBJECT_ID      = 1989-080A
CENTER_NAME    = EARTH
REF_FRAME      = TEME
TIME_SYSTEM    = UTC
MEAN_ELEMENT_THEORY = SGP/SGP4

EPOCH          = 2026-02-02T09:04:02.472096
MEAN_MOTION    = 12.59509500
ECCENTRICITY   = .11884052
INCLINATION    = 82.6073
RA_OF_ASC_NODE = 127.3850
ARG_OF_PERICENTER = 14.8039
MEAN_ANOMALY   = 348.4876

EPHEMERIS_TYPE = 0
CLASSIFICATION_TYPE = U
NORAD_CAT_ID   = 20261
ELEMENT_SET_NO = 999
REV_AT_EPOCH   = 66235
BSTAR          = .14177723E-3
MEAN_MOTION_DOT = .499E-5
MEAN_MOTION_DDOT = 0

CCSDS_OMM_VERS = 2.0
CREATION_DATE  = 
ORIGINATOR     = 

OBJECT_NAME    = SL-14 R/B
OBJECT_ID      = 1989-080C
CENTER_NAME    = EARTH
REF_FRAME      = TEME
TIME_SYSTEM    = UTC
MEAN_ELEMENT_THEORY = SGP/SGP4

EPOCH          = 2026-02-02T10:16:51.365856
MEAN_MOTION    = 12.50452284
ECCENTRICITY   = .12294126
INCLINATION    = 82.5935
RA_OF_ASC_NODE = 195.8241
ARG_OF_PERICENTER = 265.3953
MEAN_ANOMALY   = 80.6041

EPHEMERIS_TYPE = 0
CLASSIFICATION_TYPE = U
NORAD_CAT_ID   = 20262
ELEMENT_SET_NO = 999
REV_AT_EPOCH   = 65574
BSTAR          = .9698602E-4
MEAN_MOTION_DOT = .32E-5
MEAN_MOTION_DDOT = 0

CCSDS_OMM_VERS = 2.0
CREATION_DATE  = 
ORIGINATOR     = 

OBJECT_NAME    = DELTA 1 R/B
OBJECT_ID      = 1989-089B
CENTER_NAME    = EARTH
REF_FRAME      = TEME
TIME_SYSTEM    = UTC
MEAN_ELEMENT_THEORY = SGP/SGP4

EPOCH          = 2026-02-03T03:10:36.145920
MEAN_MOTION    = 14.50632167
ECCENTRICITY   = .0067859
INCLINATION    = 97.0729
RA_OF_ASC_NODE = 247.0615
ARG_OF_PERICENTER = 231.2152
MEAN_ANOMALY   = 128.2972

EPHEMERIS_TYPE = 0
CLASSIFICATION_TYPE = U
NORAD_CAT_ID   = 20323
ELEMENT_SET_NO = 999
REV_AT_EPOCH   = 89072
BSTAR          = .11132E-3
MEAN_MOTION_DOT = .414E-5
MEAN_MOTION_DDOT = 0

CCSDS_OMM_VERS = 2.0
CREATION_DATE  = 
ORIGINATOR     = 

OBJECT_NAME    = ARIANE 40 R/B
OBJECT_ID      = 1990-005H
CENTER_NAME    = EARTH
REF_FRAME      = TEME
TIME_SYSTEM    = UTC
MEAN_ELEMENT_THEORY = SGP/SGP4

EPOCH          = 2026-02-03T03:17:34.680480
MEAN_MOTION    = 14.39846162
ECCENTRICITY   = .0009136
INCLINATION    = 98.3155
RA_OF_ASC_NODE = 95.8150
ARG_OF_PERICENTER = 313.1563
MEAN_ANOMALY   = 46.8861

EPHEMERIS_TYPE = 0
CLASSIFICATION_TYPE = U
NORAD_CAT_ID   = 20443
ELEMENT_SET_NO = 999
REV_AT_EPOCH   = 88783
BSTAR          = .10763E-3
MEAN_MOTION_DOT = .296E-5
MEAN_MOTION_DDOT = 0

