COSMOS 1933             
1 18958U 88020A   26034.11320885  .00004436  00000+0  21879-3 0  9998
2 18958  82.5131 285.1185 0003638 346.1973  13.9160 15.17675467 44980
SL-3 R/B                
1 19046U 88032B   26034.09797448  .00007059  00000+0  33333-3 0  9992
2 19046  97.5139  17.4974 0026206 359.0536   1.0645 15.19442791 46857
SL-16 R/B               
1 19120U 88039B   26034.03077495  .00000095  00000+0  67502-4 0  9998
2 19120  71.0151 141.8356 0020671  27.7117 332.5105 14.19611068953462
COSMOS 1953             
1 19210U 88050A   26033.52828300  .00010538  00000+0  38657-3 0  9994
2 19210  82.5078 193.5842 0010366 246.3598 113.6553 15.27783597 32418
SL-8 R/B                
1 19257U 88053B   26033.91046685  .00000242  00000+0  86887-4 0  9999
2 19257  74.0474 176.5663 0020115   2.6670 144.6394 14.38893890971591
COSMOS 1975             
1 19573U 88093A   26033.42165299  .00009757  00000+0  36180-3 0  9993
2 19573  82.5225 153.0594 0010407 297.3964  62.6216 15.27425140 14021
SL-14 R/B               
1 19574U 88093B   26034.17808211  .00000457  00000+0  49734-4 0  9993
2 19574  82.5284  74.4508 0021522 148.7221 275.2571 14.85617424995916
SL-16 R/B               
1 19650U 88102B   26033.51676638 -.00000173  00000+0 -63427-4 0  9994
2 19650  70.9971 225.5007 0012174  59.9348 300.2981 14.16146001921919
INTERCOSMOS 24          
1 20261U 89080A   26033.37780639  .00000499  00000+0  14178-3 0  9998
2 20261  82.6073 127.3850 1188405  14.8039 348.4876 12.59509500662355
SL-14 R/B               
1 20262U 89080C   26033.42837229  .00000320  00000+0  96986-4 0  9994
2 20262  82.5935 195.8241 1229412 265.3953  80.6041 12.50452284655749
DELTA 1 R/B             
1 20323U 89089B   26034.13236280  .00000414  00000+0  11132-3 0  9993
2 20323  97.0729 247.0615 0067859 231.2152 128.2972 14.50632167890724
ARIANE 40 R/B           
1 20443U 90005H   26034.13720695  .00000296  00000+0  10763-3 0  9991
2 20443  98.3155  95.8150 0009136 313.1563  46.8861 14.39846162887836
